OBJECT_NAME,OBJECT_ID,EPOCH,MEAN_MOTION,ECCENTRICITY,INCLINATION,RA_OF_ASC_NODE,ARG_OF_PERICENTER,MEAN_ANOMALY,EPHEMERIS_TYPE,CLASSIFICATION_TYPE,NORAD_CAT_ID,ELEMENT_SET_NO,REV_AT_EPOCH,BSTAR,MEAN_MOTION_DOT,MEAN_MOTION_DDOT
IONOSFERA-M 4,2025-155B,2026-06-18T14:49:59.169216,14.21488827,.00010944,98.6031,131.4045,120.1535,239.9752,0,U,64877,999,4660,.34966043E-4,.34E-6,0
MICROCARB,2025-156A,2026-06-18T04:03:35.354880,14.72326380,.0014973,97.9832,246.2889,268.7972,91.1520,0,U,64899,999,4811,.71084E-4,.4E-5,0
CO3D 3,2025-156B,2026-06-18T15:15:27.624096,15.20204538,.0001559,97.4329,248.3081,129.0121,231.1253,0,U,64900,999,4975,.1659E-3,.3526E-4,0
CO3D 4,2025-156C,2026-06-18T15:15:40.176288,15.20208353,.0000075,97.4334,248.3079,343.2544,16.8688,0,U,64901,999,4975,.13482E-4,.224E-5,0
CO3D 2,2025-156D,2026-06-18T16:02:26.844864,15.20206577,.0001494,97.4329,248.2391,107.0102,253.1297,0,U,64902,999,4975,.15813E-3,.3358E-4,0
CO3D 1,2025-156E,2026-06-18T16:02:40.009632,15.20207187,.0001314,97.4327,248.2395,112.1793,247.9582,0,U,64903,999,4975,.18791E-3,.4003E-4,0
PRSC-S1,2025-164A,2026-06-18T14:09:26.193600,15.06468655,.00063786,41.1307,279.9127,353.1551,6.9175,0,U,65055,999,4864,.25608008E-3,.3671E-4,0
SENTINEL-6B,2025-264A,2026-06-18T15:32:11.060736,12.80929961,.0008004,66.0397,132.1456,269.1955,90.8143,0,U,66514,999,2735,-.7356E-5,-.63E-6,0
CAS500-3,2025-274F,2026-06-18T16:39:49.893408,14.88323938,.0006796,97.7445,97.7111,106.3139,253.8825,0,U,66655,999,3037,.11132E-3,.976E-5,0
CSG-3,2026-001A,2026-06-18T18:02:33.923328,14.82154687,.0001379,97.8888,353.3309,94.6526,265.4845,0,U,67304,999,2469,.36709E-4,.24E-5,0
PRSC-E03,2026-092A,2026-06-18T18:41:32.844768,15.06675319,.0003425,38.0011,80.2943,17.3729,342.7149,0,U,68835,999,819,.15089E-3,.2173E-4,0
CAS500-2,2026-100AK,2026-06-18T11:14:21.030144,15.20602375,.0010572,97.4073,67.3009,30.8412,329.3442,0,U,69013,999,700,.23876E-3,.5172E-4,0
