IONOSFERA-M 4           
1 64877U 25155B   26169.61804594  .00000034  00000+0  34966-4 0  9999
2 64877  98.6031 131.4045 0001094 120.1535 239.9752 14.21488827 46608
MICROCARB               
1 64899U 25156A   26169.16915920  .00000400  00000+0  71084-4 0  9999
2 64899  97.9832 246.2889 0014973 268.7972  91.1520 14.72326380 48118
CO3D 3                  
1 64900U 25156B   26169.63573639  .00003526  00000+0  16590-3 0  9993
2 64900  97.4329 248.3081 0001559 129.0121 231.1253 15.20204538 49759
CO3D 4                  
1 64901U 25156C   26169.63588167  .00000224  00000+0  13482-4 0  9996
2 64901  97.4334 248.3079 0000075 343.2544  16.8688 15.20208353 49753
CO3D 2                  
1 64902U 25156D   26169.66836626  .00003358  00000+0  15813-3 0  9996
2 64902  97.4329 248.2391 0001494 107.0102 253.1297 15.20206577 49754
CO3D 1                  
1 64903U 25156E   26169.66851863  .00004003  00000+0  18791-3 0  9993
2 64903  97.4327 248.2395 0001314 112.1793 247.9582 15.20207187 49757
PRSC-S1                 
1 65055U 25164A   26169.58988650  .00003671  00000+0  25608-3 0  9992
2 65055  41.1307 279.9127 0006378 353.1551   6.9175 15.06468655 48649
SENTINEL-6B             
1 66514U 25264A   26169.64735024 -.00000063  00000+0 -73560-5 0  9992
2 66514  66.0397 132.1456 0008004 269.1955  90.8143 12.80929961 27355
CAS500-3                
1 66655U 25274F   26169.69432747  .00000976  00000+0  11132-3 0  9996
2 66655  97.7445  97.7111 0006796 106.3139 253.8825 14.88323938 30378
CSG-3                   
1 67304U 26001A   26169.75178152  .00000240  00000+0  36709-4 0  9993
2 67304  97.8888 353.3309 0001379  94.6526 265.4845 14.82154687 24699
PRSC-E03                
1 68835U 26092A   26169.77885237  .00002173  00000+0  15089-3 0  9998
2 68835  38.0011  80.2943 0003425  17.3729 342.7149 15.06675319  8195
CAS500-2                
1 69013U 26100AK  26169.46829896  .00005172  00000+0  23876-3 0  9997
2 69013  97.4073  67.3009 0010572  30.8412 329.3442 15.20602375  7004
